TIANMU-1 07             
1 57399U 23101A   26065.57454230  .00008352  00000+0  29795-3 0  9991
2 57399  97.2728 118.5929 0004609 142.4105 217.7458 15.29118809145964
STARLINK-33700          
1 63484U 25070AA  26068.92590638  .00023045  00000+0  84331-3 0  9998
2 63484  43.0051 258.3516 0003337 267.5654  92.4816 15.27617072 53018
